STARLINK-30453          
1 57910U 23146V   26193.38980634 -.00000832  00000+0 -20707-4 0  9994
2 57910  43.0030 326.8905 0001639 281.6177  78.4490 15.27575283155107
STARLINK-30478          
1 57911U 23146W   26193.41486326  .00000252  00000+0  18702-4 0  9994
2 57911  43.0008 329.6131 0001339 203.6965 156.3825 15.27571965156136
STARLINK-30477          
1 57912U 23146X   26193.34868352  .00001868  00000+0  77425-4 0  9991
2 57912  43.0049 326.5783 0002265 248.0536 112.0075 15.27564678156169
STARLINK-30450          
1 57913U 23147A   26193.46222408  .00000133  00000+0  14376-4 0  9992
2 57913  43.0053 340.2842 0001985 272.8623  87.2001 15.27577590155689
STARLINK-30483          
1 57914U 23147B   26193.47653350 -.00000333  00000+0 -25839-5 0  9999
2 57914  43.0006 194.9005 0000546 295.9292  64.1503 15.27587389157391
STARLINK-30454          
1 57915U 23147C   26193.46993157  .00000878  00000+0  41440-4 0  9998
2 57915  43.0034 340.3376 0001120 241.4196 118.6543 15.27577499155689
STARLINK-30501          
1 57917U 23147E   26193.47249911  .00007115  00000+0  26786-3 0  9999
2 57917  43.0001 340.3497 0001507 192.6523 167.4291 15.27576861155706
STARLINK-30499          
1 57918U 23147F   26194.04716007  .00000672  00000+0  33965-4 0  9998
2 57918  43.0034 192.2689 0001533 274.6646  85.4031 15.27575825157506
STARLINK-30496          
1 57919U 23147G   26193.74561293  .00001720  00000+0  72014-4 0  9993
2 57919  43.0007 338.9640 0000853 251.4821 108.5938 15.27579911155753
STARLINK-30485          
1 57920U 23147H   26193.48792458  .00001256  00000+0  55191-4 0  9996
2 57920  43.0033 340.4743 0002230 280.1286  79.9314 15.27577547155719
STARLINK-30492          
1 57921U 23147J   26193.42895121  .00000113  00000+0  13624-4 0  9998
2 57921  42.9939 340.8815 0000675 180.0928 179.9923 15.27583486155670
STARLINK-30440          
1 57923U 23147L   26192.46753851 -.00006957  00000+0 -24474-3 0  9994
2 57923  42.9998 346.5578 0001929 143.0636 217.0349 15.27415916155559
STARLINK-30487          
1 57924U 23147M   26193.89001010  .00001544  00000+0  65612-4 0  9991
2 57924  43.0026 341.7106 0001675 260.2818  99.7844 15.27591890155731
STARLINK-30452          
1 57925U 23147N   26193.45079540  .00002102  00000+0  85898-4 0  9996
2 57925  42.9968 341.0375 0002129 160.4373 199.6561 15.27575073155672
STARLINK-30468          
1 57926U 23147P   26193.47329556 -.00000957  00000+0 -25278-4 0  9998
2 57926  43.0038 343.7702 0001141 270.6428  89.4293 15.27573652155640
STARLINK-30448          
1 57928U 23147R   26193.74897058  .00000289  00000+0  20034-4 0  9998
2 57928  43.0029 342.3890 0001506 256.5718 103.4966 15.27579452155687
STARLINK-30476          
1 57930U 23147T   26194.16668980  .00289831  39526-4  85368-3 0  9990
2 57930  42.9870 246.4972 0006014 136.0485 318.0997 15.91860450  6000
STARLINK-30488          
1 57931U 23147U   26193.49128210  .00000044  00000+0  11133-4 0  9990
2 57931  43.0030 343.8918 0001373 258.0052 102.0646 15.27578650155678
STARLINK-30471          
1 57932U 23147V   26193.45836872  .00000440  00000+0  25505-4 0  9995
2 57932  43.0035 340.2474 0001173 261.6580  98.4139 15.27576324155688
STARLINK-30461          
1 57933U 23147W   26193.45451297  .00000494  00000+0  27463-4 0  9994
2 57933  43.0032 340.2207 0001258 261.4865  98.5844 15.27576064155683
STARLINK-30712          
1 57935U 23148A   26192.30393894 -.00001031  00000+0 -19397-4 0  9995
2 57935  53.1596 168.3258 0001034  95.0729 265.0391 15.34370810157374
STARLINK-30716          
1 57936U 23148B   26193.92746787  .00000424  00000+0  26442-4 0  9990
2 57936  53.1601 162.7100 0000923 102.7746 257.3358 15.30201511157595
STARLINK-30400          
1 57937U 23148C   26193.90082544  .00000438  00000+0  24108-4 0  9995
2 57937  53.1571 161.1786 0001359  79.0695 281.0460 15.34392980157614
STARLINK-30710          
1 57938U 23148D   26193.91329351 -.00000340  00000+0  10770-5 0  9991
2 57938  53.1581 150.7066 0001523  85.0716 275.0461 15.34389529157759
STARLINK-30714          
1 57939U 23148E   26192.35646646  .00036123  00000+0  11689-2 0  9992
2 57939  53.1576 169.9567 0001541  82.5259 277.5918 15.31735015157358
STARLINK-30711          
1 57940U 23148F   26193.93063578  .00000435  00000+0  26824-4 0  9992
2 57940  53.1592 162.7360 0001318  73.1052 287.0093 15.30197279157598
STARLINK-30715          
1 57941U 23148G   26194.01073640 -.00006771  00000+0 -21706-3 0  9998
2 57941  53.1576 151.8786 0001029  92.1529 267.9589 15.30148253157754
STARLINK-30455          
1 57942U 23148H   26192.42462082  .00001978  00000+0  71447-4 0  9994
2 57942  53.1557 169.6361 0002128  80.4561 279.6682 15.33560459157367
STARLINK-30456          
1 57943U 23148J   26193.92431543 -.00000390  00000+0 -10387-5 0  9995
2 57943  53.1585 162.7685 0000935  87.3435 272.7672 15.30196987157598
STARLINK-30708          
1 57944U 23148K   26193.95334369 -.00000562  00000+0 -54892-5 0  9997
2 57944  53.1587 160.8263 0001327  79.7194 280.3958 15.34390030157620
