OBJECT_NAME,OBJECT_ID,EPOCH,MEAN_MOTION,ECCENTRICITY,INCLINATION,RA_OF_ASC_NODE,ARG_OF_PERICENTER,MEAN_ANOMALY,EPHEMERIS_TYPE,CLASSIFICATION_TYPE,NORAD_CAT_ID,ELEMENT_SET_NO,REV_AT_EPOCH,BSTAR,MEAN_MOTION_DOT,MEAN_MOTION_DDOT
STARLINK-30453,2023-146V,2026-07-12T09:21:19.267776,15.27575283,.00016397,43.0030,326.8905,281.6177,78.4490,0,U,57910,999,15510,-.20706672E-4,-.832E-5,0
STARLINK-30478,2023-146W,2026-07-12T09:57:24.185664,15.27571965,.00013396,43.0008,329.6131,203.6965,156.3825,0,U,57911,999,15613,.18702371E-4,.252E-5,0
STARLINK-30477,2023-146X,2026-07-12T08:22:06.256128,15.27564678,.00022653,43.0049,326.5783,248.0536,112.0075,0,U,57912,999,15616,.77425485E-4,.1868E-4,0
STARLINK-30450,2023-147A,2026-07-12T11:05:36.160512,15.27577590,.00019854,43.0053,340.2842,272.8623,87.2001,0,U,57913,999,15568,.14376227E-4,.133E-5,0
STARLINK-30483,2023-147B,2026-07-12T11:26:12.494400,15.27587389,.00005464,43.0006,194.9005,295.9292,64.1503,0,U,57914,999,15739,-.2583924E-5,-.333E-5,0
STARLINK-30454,2023-147C,2026-07-12T11:16:42.087648,15.27577499,.00011208,43.0034,340.3376,241.4196,118.6543,0,U,57915,999,15568,.4144029E-4,.878E-5,0
STARLINK-30501,2023-147E,2026-07-12T11:20:23.923104,15.27576861,.00015077,43.0001,340.3497,192.6523,167.4291,0,U,57917,999,15570,.26785942E-3,.7115E-4,0
STARLINK-30499,2023-147F,2026-07-13T01:07:54.630048,15.27575825,.0001533,43.0034,192.2689,274.6646,85.4031,0,U,57918,999,15750,.33965E-4,.672E-5,0
STARLINK-30496,2023-147G,2026-07-12T17:53:40.957152,15.27579911,.0000853,43.0007,338.9640,251.4821,108.5938,0,U,57919,999,15575,.72014E-4,.172E-4,0
STARLINK-30485,2023-147H,2026-07-12T11:42:36.683712,15.27577547,.00022308,43.0033,340.4743,280.1286,79.9314,0,U,57920,999,15571,.55190943E-4,.1256E-4,0
STARLINK-30492,2023-147J,2026-07-12T10:17:41.384544,15.27583486,.00006753,42.9939,340.8815,180.0928,179.9923,0,U,57921,999,15567,.1362442E-4,.113E-5,0
STARLINK-30440,2023-147L,2026-07-11T11:13:15.327264,15.27415916,.00019293,42.9998,346.5578,143.0636,217.0349,0,U,57923,999,15555,-.24474205E-3,-.6957E-4,0
STARLINK-30487,2023-147M,2026-07-12T21:21:36.872640,15.27591890,.0001675,43.0026,341.7106,260.2818,99.7844,0,U,57924,999,15573,.65612E-4,.1544E-4,0
STARLINK-30452,2023-147N,2026-07-12T10:49:08.722560,15.27575073,.00021297,42.9968,341.0375,160.4373,199.6561,0,U,57925,999,15567,.85897596E-4,.2102E-4,0
STARLINK-30468,2023-147P,2026-07-12T11:21:32.736384,15.27573652,.00011413,43.0038,343.7702,270.6428,89.4293,0,U,57926,999,15564,-.25278201E-4,-.957E-5,0
STARLINK-30448,2023-147R,2026-07-12T17:58:31.058112,15.27579452,.0001506,43.0029,342.3890,256.5718,103.4966,0,U,57928,999,15568,.20034E-4,.289E-5,0
STARLINK-30476,2023-147T,2026-07-13T04:00:01.998720,15.91860450,.0006014,42.9870,246.4972,136.0485,318.0997,0,U,57930,999,600,.85368E-3,.289831E-2,.39526E-4
STARLINK-30488,2023-147U,2026-07-12T11:47:26.773440,15.27578650,.00013736,43.0030,343.8918,258.0052,102.0646,0,U,57931,999,15567,.11132837E-4,.44E-6,0
STARLINK-30471,2023-147V,2026-07-12T11:00:03.057408,15.27576324,.00011731,43.0035,340.2474,261.6580,98.4139,0,U,57932,999,15568,.25505465E-4,.44E-5,0
STARLINK-30461,2023-147W,2026-07-12T10:54:29.920608,15.27576064,.00012587,43.0032,340.2207,261.4865,98.5844,0,U,57933,999,15568,.27462863E-4,.494E-5,0
STARLINK-30712,2023-148A,2026-07-11T07:17:40.324416,15.34370810,.00010349,53.1596,168.3258,95.0729,265.0391,0,U,57935,999,15737,-.1939676E-4,-.1031E-4,0
STARLINK-30716,2023-148B,2026-07-12T22:15:33.223968,15.30201511,.0000923,53.1601,162.7100,102.7746,257.3358,0,U,57936,999,15759,.26442E-4,.424E-5,0
STARLINK-30400,2023-148C,2026-07-12T21:37:11.318016,15.34392980,.0001359,53.1571,161.1786,79.0695,281.0460,0,U,57937,999,15761,.24108E-4,.438E-5,0
STARLINK-30710,2023-148D,2026-07-12T21:55:08.559264,15.34389529,.0001523,53.1581,150.7066,85.0716,275.0461,0,U,57938,999,15775,.1077E-5,-.34E-5,0
STARLINK-30714,2023-148E,2026-07-11T08:33:18.702144,15.31735015,.00015413,53.1576,169.9567,82.5259,277.5918,0,U,57939,999,15735,.11688984E-2,.36123E-3,0
STARLINK-30711,2023-148F,2026-07-12T22:20:06.931392,15.30197279,.0001318,53.1592,162.7360,73.1052,287.0093,0,U,57940,999,15759,.26824E-4,.435E-5,0
STARLINK-30715,2023-148G,2026-07-13T00:15:27.624960,15.30148253,.0001029,53.1576,151.8786,92.1529,267.9589,0,U,57941,999,15775,-.21706E-3,-.6771E-4,0
STARLINK-30455,2023-148H,2026-07-11T10:11:27.238848,15.33560459,.00021287,53.1557,169.6361,80.4561,279.6682,0,U,57942,999,15736,.71447028E-4,.1978E-4,0
STARLINK-30456,2023-148J,2026-07-12T22:11:00.853152,15.30196987,.0000935,53.1585,162.7685,87.3435,272.7672,0,U,57943,999,15759,-.10387E-5,-.39E-5,0
STARLINK-30708,2023-148K,2026-07-12T22:52:48.894816,15.34390030,.0001327,53.1587,160.8263,79.7194,280.3958,0,U,57944,999,15762,-.54892E-5,-.562E-5,0
